[{"OBJECT_NAME":"STARLINK-30282","OBJECT_ID":"2023-144V","EPOCH":"2026-03-09T01:02:17.581056","MEAN_MOTION":15.26729095,"ECCENTRICITY":0.00013584,"INCLINATION":43.001,"RA_OF_ASC_NODE":288.4148,"ARG_OF_PERICENTER":272.5421,"MEAN_ANOMALY":87.5275,"EPHEMERIS_TYPE":0,"CLASSIFICATION_TYPE":"U","NORAD_CAT_ID":57883,"ELEMENT_SET_NO":999,"REV_AT_EPOCH":13754,"BSTAR":0.00041723449,"MEAN_MOTION_DOT":0.00010945,"MEAN_MOTION_DDOT":0},{"OBJECT_NAME":"ELECTRON KICK STAGE R\/B","OBJECT_ID":"2022-147B","EPOCH":"2026-03-09T22:28:20.187264","MEAN_MOTION":15.28920172,"ECCENTRICITY":0.00095089,"INCLINATION":97.642,"RA_OF_ASC_NODE":85.1135,"ARG_OF_PERICENTER":110.4683,"MEAN_ANOMALY":249.7578,"EPHEMERIS_TYPE":0,"CLASSIFICATION_TYPE":"U","NORAD_CAT_ID":54228,"ELEMENT_SET_NO":999,"REV_AT_EPOCH":18390,"BSTAR":0.00083201931,"MEAN_MOTION_DOT":0.00023374,"MEAN_MOTION_DDOT":0}]
